start=new Date('2023-04-17T00:00:00.000Z').valueOf();
sats=[{"REF_FRAME":"TEME","RA_OF_ASC_NODE":"122.2378","MEAN_ELEMENT_THEORY":"SGP4","REV_AT_EPOCH":"12076","NORAD_CAT_ID":"47674","OBJECT_NAME":"STARLINK-2067","COUNTRY_CODE":"US","DECAY_DATE":null,"MEAN_MOTION":"15.06397703","APOAPSIS":"548.384","SITE":"AFETR","MEAN_MOTION_DOT":"0.00002119","CLASSIFICATION_TYPE":"U","LAUNCH_DATE":"2021-02-16","GP_ID":"230166608","SEMIMAJOR_AXIS":"6925.356","BSTAR":"0.00016109000000","TLE_LINE2":"2 47674  53.0527 122.2378 0001680 107.1006 253.0167 15.06397703120768","TLE_LINE1":"1 47674U 21012BG  23106.44825941  .00002119  00000-0  16109-3 0  9996","INCLINATION":"53.0527","MEAN_MOTION_DDOT":"0.0000000000000","OBJECT_TYPE":"PAYLOAD","PERIAPSIS":"546.057","FILE":"3888626","CENTER_NAME":"EARTH","RCS_SIZE":"LARGE","ELEMENT_SET_NO":"999","OBJECT_ID":"2021-012BG","MEAN_ANOMALY":"253.0167","PERIOD":"95.592","EPOCH":"2023-04-16T10:45:29.613024","ECCENTRICITY":"0.00016800","EPHEMERIS_TYPE":"0","TIME_SYSTEM":"UTC","ARG_OF_PERICENTER":"107.1006"},{"GP_ID":"230196866","BSTAR":"0.00108110000000","SEMIMAJOR_AXIS":"6925.372","TLE_LINE1":"1 47675U 21012BH  23106.77357501  .00015855  00000-0  10811-2 0  9999","TLE_LINE2":"2 47675  53.0530 120.7878 0001511  84.3591 275.7570 15.06392502120816","MEAN_MOTION_DDOT":"0.0000000000000","INCLINATION":"53.0530","CENTER_NAME":"EARTH","FILE":"3888799","ELEMENT_SET_NO":"999","RCS_SIZE":"LARGE","PERIAPSIS":"546.190","OBJECT_TYPE":"PAYLOAD","PERIOD":"95.593","ECCENTRICITY":"0.00015110","MEAN_ANOMALY":"275.7570","EPOCH":"2023-04-16T18:33:56.880864","OBJECT_ID":"2021-012BH","ARG_OF_PERICENTER":"84.3591","TIME_SYSTEM":"UTC","EPHEMERIS_TYPE":"0","RA_OF_ASC_NODE":"120.7878","REF_FRAME":"TEME","REV_AT_EPOCH":"12081","NORAD_CAT_ID":"47675","MEAN_ELEMENT_THEORY":"SGP4","OBJECT_NAME":"STARLINK-2078","COUNTRY_CODE":"US","DECAY_DATE":null,"MEAN_MOTION":"15.06392502","SITE":"AFETR","APOAPSIS":"548.283","MEAN_MOTION_DOT":"0.00015855","LAUNCH_DATE":"2021-02-16","CLASSIFICATION_TYPE":"U"},{"REF_FRAME":"TEME","RA_OF_ASC_NODE":"10.2143","MEAN_ELEMENT_THEORY":"SGP4","NORAD_CAT_ID":"47676","REV_AT_EPOCH":"12235","COUNTRY_CODE":"US","OBJECT_NAME":"STARLINK-2083","DECAY_DATE":null,"MEAN_MOTION":"15.06373950","APOAPSIS":"548.185","SITE":"AFETR","MEAN_MOTION_DOT":"0.00032550","CLASSIFICATION_TYPE":"U","LAUNCH_DATE":"2021-02-16","GP_ID":"230197120","SEMIMAJOR_AXIS":"6925.428","BSTAR":"0.00219560000000","TLE_LINE2":"2 47676  53.0561  10.2143 0001287 132.1647 227.9451 15.06373950122357","TLE_LINE1":"1 47676U 21012BJ  23106.90164916  .00032550  00000-0  21956-2 0  9994","INCLINATION":"53.0561","MEAN_MOTION_DDOT":"0.0000000000000","PERIAPSIS":"546.402","OBJECT_TYPE":"PAYLOAD","FILE":"3888799","CENTER_NAME":"EARTH","ELEMENT_SET_NO":"999","RCS_SIZE":"LARGE","OBJECT_ID":"2021-012BJ","ECCENTRICITY":"0.00012870","PERIOD":"95.594","MEAN_ANOMALY":"227.9451","EPOCH":"2023-04-16T21:38:22.487424","EPHEMERIS_TYPE":"0","TIME_SYSTEM":"UTC","ARG_OF_PERICENTER":"132.1647"},{"TLE_LINE2":"2 47677  53.0516 140.5415 0001380  66.9798 293.1336 15.06397707120533","TLE_LINE1":"1 47677U 21012BK  23106.82607635  .00023476  00000-0  15898-2 0  9991","GP_ID":"230196079","SEMIMAJOR_AXIS":"6925.356","BSTAR":"0.00158980000000","OBJECT_ID":"2021-012BK","PERIOD":"95.592","MEAN_ANOMALY":"293.1336","ECCENTRICITY":"0.00013800","EPOCH":"2023-04-16T19:49:32.996640","EPHEMERIS_TYPE":"0","TIME_SYSTEM":"UTC","ARG_OF_PERICENTER":"66.9798","MEAN_MOTION_DDOT":"0.0000000000000","INCLINATION":"53.0516","OBJECT_TYPE":"PAYLOAD","PERIAPSIS":"546.265","ELEMENT_SET_NO":"999","RCS_SIZE":"LARGE","FILE":"3888799","CENTER_NAME":"EARTH","COUNTRY_CODE":"US","OBJECT_NAME":"STARLINK-2090","DECAY_DATE":null,"REF_FRAME":"TEME","RA_OF_ASC_NODE":"140.5415","MEAN_ELEMENT_THEORY":"SGP4","NORAD_CAT_ID":"47677","REV_AT_EPOCH":"12053","MEAN_MOTION_DOT":"0.00023476","CLASSIFICATION_TYPE":"U","LAUNCH_DATE":"2021-02-16","MEAN_MOTION":"15.06397707","APOAPSIS":"548.176","SITE":"AFETR"},{"LAUNCH_DATE":"2021-02-16","CLASSIFICATION_TYPE":"U","MEAN_MOTION_DOT":"-0.00000161","SITE":"AFETR","APOAPSIS":"548.331","MEAN_MOTION":"15.06393189","DECAY_DATE":null,"OBJECT_NAME":"STARLINK-2095","COUNTRY_CODE":"US","REV_AT_EPOCH":"12054","NORAD_CAT_ID":"47679","MEAN_ELEMENT_THEORY":"SGP4","RA_OF_ASC_NODE":"140.7140","REF_FRAME":"TEME","ARG_OF_PERICENTER":"97.8142","TIME_SYSTEM":"UTC","EPHEMERIS_TYPE":"0","PERIOD":"95.593","EPOCH":"2023-04-16T18:56:28.207968","MEAN_ANOMALY":"262.3027","ECCENTRICITY":"0.00015840","OBJECT_ID":"2021-012BM","RCS_SIZE":"LARGE","ELEMENT_SET_NO":"999","CENTER_NAME":"EARTH","FILE":"3888799","PERIAPSIS":"546.137","OBJECT_TYPE":"PAYLOAD","INCLINATION":"53.0537","MEAN_MOTION_DDOT":"0.0000000000000","TLE_LINE1":"1 47679U 21012BM  23106.78921537 -.00000161  00000-0  81120-5 0  9999","TLE_LINE2":"2 47679  53.0537 140.7140 0001584  97.8142 262.3027 15.06393189120543","BSTAR":"0.00000811200000","SEMIMAJOR_AXIS":"6925.369","GP_ID":"230196119"},{"PERIOD":"95.594","MEAN_ANOMALY":"315.2557","EPOCH":"2023-04-16T19:58:15.261312","ECCENTRICITY":"0.00011810","OBJECT_ID":"2021-017A","ARG_OF_PERICENTER":"44.8527","TIME_SYSTEM":"UTC","EPHEMERIS_TYPE":"0","MEAN_MOTION_DDOT":"0.0000000000000","INCLINATION":"53.0536","CENTER_NAME":"EARTH","FILE":"3888799","ELEMENT_SET_NO":"999","RCS_SIZE":"LARGE","OBJECT_TYPE":"PAYLOAD","PERIAPSIS":"546.476","TLE_LINE1":"1 47722U 21017A   23106.83212108  .00029331  00000-0  19812-2 0  9991","TLE_LINE2":"2 47722  53.0536 265.7660 0001181  44.8527 315.2557 15.06373928118540","GP_ID":"230196369","BSTAR":"0.00198120000000","SEMIMAJOR_AXIS":"6925.428","MEAN_MOTION_DOT":"0.00029331","LAUNCH_DATE":"2021-03-04","CLASSIFICATION_TYPE":"U","MEAN_MOTION":"15.06373928","SITE":"AFETR","APOAPSIS":"548.111","COUNTRY_CODE":"US","OBJECT_NAME":"STARLINK-2068","DECAY_DATE":null,"RA_OF_ASC_NODE":"265.7660","REF_FRAME":"TEME","REV_AT_EPOCH":"11854","NORAD_CAT_ID":"47722","MEAN_ELEMENT_THEORY":"SGP4"},{"RA_OF_ASC_NODE":"201.6755","REF_FRAME":"TEME","REV_AT_EPOCH":"11938","NORAD_CAT_ID":"47723","MEAN_ELEMENT_THEORY":"SGP4","COUNTRY_CODE":"US","OBJECT_NAME":"STARLINK-2107","DECAY_DATE":null,"MEAN_MOTION":"15.06282201","SITE":"AFETR","APOAPSIS":"548.303","MEAN_MOTION_DOT":"0.00020921","LAUNCH_DATE":"2021-03-04","CLASSIFICATION_TYPE":"U","GP_ID":"230165626","BSTAR":"0.00142370000000","SEMIMAJOR_AXIS":"6925.710","TLE_LINE1":"1 47723U 21017B   23106.57451862  .00020921  00000-0  14237-2 0  9997","TLE_LINE2":"2 47723  53.0536 201.6755 0001051  72.5553 287.5551 15.06282201119389","INCLINATION":"53.0536","MEAN_MOTION_DDOT":"0.0000000000000","ELEMENT_SET_NO":"999","RCS_SIZE":"LARGE","CENTER_NAME":"EARTH","FILE":"3888626","OBJECT_TYPE":"PAYLOAD","PERIAPSIS":"546.847","PERIOD":"95.600","MEAN_ANOMALY":"287.5551","EPOCH":"2023-04-16T13:47:18.408768","ECCENTRICITY":"0.00010510","OBJECT_ID":"2021-017B","ARG_OF_PERICENTER":"72.5553","TIME_SYSTEM":"UTC","EPHEMERIS_TYPE":"0"},{"EPHEMERIS_TYPE":"0","TIME_SYSTEM":"UTC","ARG_OF_PERICENTER":"86.2895","OBJECT_ID":"2021-017C","PERIOD":"95.598","MEAN_ANOMALY":"273.8244","ECCENTRICITY":"0.00013080","EPOCH":"2023-04-16T16:15:54.473184","PERIAPSIS":"546.601","OBJECT_TYPE":"PAYLOAD","ELEMENT_SET_NO":"999","RCS_SIZE":"LARGE","FILE":"3888799","CENTER_NAME":"EARTH","INCLINATION":"53.0526","MEAN_MOTION_DDOT":"0.0000000000000","TLE_LINE2":"2 47724  53.0526 201.2176 0001308  86.2895 273.8244 15.06304261119364","TLE_LINE1":"1 47724U 21017C   23106.67771381  .00031466  00000-0  21274-2 0  9995","SEMIMAJOR_AXIS":"6925.642","BSTAR":"0.00212740000000","GP_ID":"230196583","CLASSIFICATION_TYPE":"U","LAUNCH_DATE":"2021-03-04","MEAN_MOTION_DOT":"0.00031466","APOAPSIS":"548.413","SITE":"AFETR","MEAN_MOTION":"15.06304261","DECAY_DATE":null,"COUNTRY_CODE":"US","OBJECT_NAME":"STARLINK-2116","MEAN_ELEMENT_THEORY":"SGP4","REV_AT_EPOCH":"11936","NORAD_CAT_ID":"47724","REF_FRAME":"TEME","RA_OF_ASC_NODE":"201.2176"},{"MEAN_MOTION":"15.06384200","APOAPSIS":"548.047","SITE":"AFETR","MEAN_MOTION_DOT":"0.00030356","CLASSIFICATION_TYPE":"U","LAUNCH_DATE":"2021-03-04","REF_FRAME":"TEME","RA_OF_ASC_NODE":"270.4690","MEAN_ELEMENT_THEORY":"SGP4","REV_AT_EPOCH":"11842","NORAD_CAT_ID":"47725","OBJECT_NAME":"STARLINK-2125","COUNTRY_CODE":"US","DECAY_DATE":null,"INCLINATION":"53.0530","MEAN_MOTION_DDOT":"0.0000000000000","PERIAPSIS":"546.477","OBJECT_TYPE":"PAYLOAD","FILE":"3888799","CENTER_NAME":"EARTH","RCS_SIZE":"LARGE","ELEMENT_SET_NO":"999","OBJECT_ID":"2021-017D","ECCENTRICITY":"0.00011340","PERIOD":"95.593","MEAN_ANOMALY":"268.9748","EPOCH":"2023-04-16T20:16:07.190688","EPHEMERIS_TYPE":"0","TIME_SYSTEM":"UTC","ARG_OF_PERICENTER":"91.1371","GP_ID":"230196623","SEMIMAJOR_AXIS":"6925.397","BSTAR":"0.00204890000000","TLE_LINE2":"2 47725  53.0530 270.4690 0001134  91.1371 268.9748 15.06384200118421","TLE_LINE1":"1 47725U 21017D   23106.84452767  .00030356  00000-0  20489-2 0  9993"},{"OBJECT_NAME":"STARLINK-2126","COUNTRY_CODE":"US","DECAY_DATE":null,"RA_OF_ASC_NODE":"270.5310","REF_FRAME":"TEME","REV_AT_EPOCH":"11841","NORAD_CAT_ID":"47726","MEAN_ELEMENT_THEORY":"SGP4","MEAN_MOTION_DOT":"0.00026681","LAUNCH_DATE":"2021-03-04","CLASSIFICATION_TYPE":"U","MEAN_MOTION":"15.06375347","SITE":"AFETR","APOAPSIS":"547.917","TLE_LINE1":"1 47726U 21017E   23106.82978598  .00026681  00000-0  18045-2 0  9998","TLE_LINE2":"2 47726  53.0520 270.5310 0000906  95.4201 264.6891 15.06375347118419","GP_ID":"230196870","BSTAR":"0.00180450000000","SEMIMAJOR_AXIS":"6925.424","MEAN_ANOMALY":"264.6891","PERIOD":"95.594","ECCENTRICITY":"0.00009060","EPOCH":"2023-04-16T19:54:53.508672","OBJECT_ID":"2021-017E","ARG_OF_PERICENTER":"95.4201","TIME_SYSTEM":"UTC","EPHEMERIS_TYPE":"0","INCLINATION":"53.0520","MEAN_MOTION_DDOT":"0.0000000000000","ELEMENT_SET_NO":"999","RCS_SIZE":"LARGE","CENTER_NAME":"EARTH","FILE":"3888799","OBJECT_TYPE":"PAYLOAD","PERIAPSIS":"546.662"}];
